{"type": "FeatureCollection", "features": [ {"type": "Feature", "properties": {"norad_id": 41335, "name": "SENTINEL-3A", "group": "resource", "lat": 0.8465698790964653, "lon": -123.9347820050017, "alt_km": 805.4780522872888, "timestamp": "2025-12-16T23:36:35.842228+00:00", "meta": {"OBJECT_NAME": "SENTINEL-3A", "OBJECT_ID": "2016-011A", "EPOCH": "2025-12-16T07:37:31.800288", "MEAN_MOTION": 14.26732087, "ECCENTRICITY": 9.273e-05, "INCLINATION": 98.6312, "RA_OF_ASC_NODE": 55.2799, "ARG_OF_PERICENTER": 91.9224, "MEAN_ANOMALY": 268.2063, "EPHEMERIS_TYPE": 0, "CLASSIFICATION_TYPE": "U", "NORAD_CAT_ID": 41335, "ELEMENT_SET_NO": 999, "REV_AT_EPOCH": 51198, "BSTAR": 6.9805416e-05, "MEAN_MOTION_DOT": 1.25e-06, "MEAN_MOTION_DDOT": 0}, "tle": {"line1": "1 41335U 16011A   25350.31772917  .00000125  00000+0  69805-4 0  9996", "line2": "2 41335  98.6312  55.2799 0000927  91.9224 268.2063 14.26732087511980"}}, "geometry": {"type": "Point", "coordinates": [-123.9347820050017, 0.8465698790964653]}}, {"type": "Feature", "properties": {"norad_id": 41556, "name": "ZIYUAN 3-2 (ZY 3-2)", "group": "resource", "lat": -63.628627017511434, "lon": 80.28827266168904, "alt_km": 506.55456786169543, "timestamp": "2025-12-16T23:36:35.842239+00:00", "meta": {"OBJECT_NAME": "ZIYUAN 3-2 (ZY 3-2)", "OBJECT_ID": "2016-033A", "EPOCH": "2025-12-16T08:06:20.428416", "MEAN_MOTION": 15.21109566, "ECCENTRICITY": 0.0010782, "INCLINATION": 97.4044, "RA_OF_ASC_NODE": 64.4463, "ARG_OF_PERICENTER": 232.7659, "MEAN_ANOMALY": 127.2593, "EPHEMERIS_TYPE": 0, "CLASSIFICATION_TYPE": "U", "NORAD_CAT_ID": 41556, "ELEMENT_SET_NO": 999, "REV_AT_EPOCH": 53018, "BSTAR": 0.00023156482, "MEAN_MOTION_DOT": 5.089e-05, "MEAN_MOTION_DDOT": 0}, "tle": {"line1": "1 41556U 16033A   25350.33773644  .00005089  00000+0  23156-3 0  9997", "line2": "2 41556  97.4044  64.4463 0010782 232.7659 127.2593 15.21109566530182"}}, "geometry": {"type": "Point", "coordinates": [80.28827266168904, -63.628627017511434]}}, {"type": "Feature", "properties": {"norad_id": 41599, "name": "CARTOSAT-2C", "group": "resource", "lat": -25.683550851274383, "lon": -135.43016306079528, "alt_km": 521.3230761369223, "timestamp": "2025-12-16T23:36:35.842249+00:00", "meta": {"OBJECT_NAME": "CARTOSAT-2C", "OBJECT_ID": "2016-040A", "EPOCH": "2025-12-16T08:28:47.620416", "MEAN_MOTION": 15.19147818, "ECCENTRICITY": 0.00113899, "INCLINATION": 97.477, "RA_OF_ASC_NODE": 47.5672, "ARG_OF_PERICENTER": 51.5953, "MEAN_ANOMALY": 308.6302, "EPHEMERIS_TYPE": 0, "CLASSIFICATION_TYPE": "U", "NORAD_CAT_ID": 41599, "ELEMENT_SET_NO": 999, "REV_AT_EPOCH": 52595, "BSTAR": 0.00012635303, "MEAN_MOTION_DOT": 2.59e-05, "MEAN_MOTION_DDOT": 0}, "tle": {"line1": "1 41599U 16040A   25350.35332894  .00002590  00000+0  12635-3 0  9996", "line2": "2 41599  97.4770  47.5672 0011389  51.5953 308.6302 15.19147818525958"}}, "geometry": {"type": "Point", "coordinates": [-135.43016306079528, -25.683550851274383]}}, {"type": "Feature", "properties": {"norad_id": 41601, "name": "SKYSAT-C1", "group": "resource", "lat": 73.54463029428742, "lon": -127.72461043622165, "alt_km": 461.1522274294066, "timestamp": "2025-12-16T23:36:35.842290+00:00", "meta": {"OBJECT_NAME": "SKYSAT-C1", "OBJECT_ID": "2016-040C", "EPOCH": "2025-12-16T01:13:01.226496", "MEAN_MOTION": 15.32653167, "ECCENTRICITY": 0.00019853, "INCLINATION": 96.9827, "RA_OF_ASC_NODE": 26.8781, "ARG_OF_PERICENTER": 5.4612, "MEAN_ANOMALY": 354.6653, "EPHEMERIS_TYPE": 0, "CLASSIFICATION_TYPE": "U", "NORAD_CAT_ID": 41601, "ELEMENT_SET_NO": 999, "REV_AT_EPOCH": 52978, "BSTAR": 0.00023548573, "MEAN_MOTION_DOT": 7.354e-05, "MEAN_MOTION_DDOT": 0}, "tle": {"line1": "1 41601U 16040C   25350.05070864  .00007354  00000+0  23549-3 0  9992", "line2": "2 41601  96.9827  26.8781 0001985   5.4612 354.6653 15.32653167529780"}}, "geometry": {"type": "Point", "coordinates": [-127.72461043622165, 73.54463029428742]}}, {"type": "Feature", "properties": {"norad_id": 41603, "name": "LAPAN-A3", "group": "resource", "lat": -51.887180351516115, "lon": 159.18751992840527, "alt_km": 477.52018021109416, "timestamp": "2025-12-16T23:36:35.842305+00:00", "meta": {"OBJECT_NAME": "LAPAN-A3", "OBJECT_ID": "2016-040E", "EPOCH": "2025-12-16T08:29:07.323072", "MEAN_MOTION": 15.31582475, "ECCENTRICITY": 0.00092837, "INCLINATION": 97.1425, "RA_OF_ASC_NODE": 347.7785, "ARG_OF_PERICENTER": 319.5312, "MEAN_ANOMALY": 40.5239, "EPHEMERIS_TYPE": 0, "CLASSIFICATION_TYPE": "U", "NORAD_CAT_ID": 41603, "ELEMENT_SET_NO": 999, "REV_AT_EPOCH": 52681, "BSTAR": 0.00011519265, "MEAN_MOTION_DOT": 3.443e-05, "MEAN_MOTION_DDOT": 0}, "tle": {"line1": "1 41603U 16040E   25350.35355698  .00003443  00000+0  11519-3 0  9997", "line2": "2 41603  97.1425 347.7785 0009283 319.5312  40.5239 15.31582475526817"}}, "geometry": {"type": "Point", "coordinates": [159.18751992840527, -51.887180351516115]}}, {"type": "Feature", "properties": {"norad_id": 41604, "name": "BIROS", "group": "resource", "lat": -55.05723122810585, "lon": -167.63677939234762, "alt_km": 306.10047708774437, "timestamp": "2025-12-16T23:36:35.842317+00:00", "meta": {"OBJECT_NAME": "BIROS", "OBJECT_ID": "2016-040F", "EPOCH": "2025-12-16T01:29:29.872320", "MEAN_MOTION": 15.90996477, "ECCENTRICITY": 0.00037377, "INCLINATION": 97.0676, "RA_OF_ASC_NODE": 21.631, "ARG_OF_PERICENTER": 140.4521, "MEAN_ANOMALY": 219.7027, "EPHEMERIS_TYPE": 0, "CLASSIFICATION_TYPE": "U", "NORAD_CAT_ID": 41604, "ELEMENT_SET_NO": 999, "REV_AT_EPOCH": 52925, "BSTAR": 0.00052095217, "MEAN_MOTION_DOT": 0.00162352, "MEAN_MOTION_DDOT": 1.1585075e-05}, "tle": {"line1": "1 41604U 16040F   25350.06215130  .00162352  11585-4  52095-3 0  9996", "line2": "2 41604  97.0676  21.6310 0003737 140.4521 219.7027 15.90996477529250"}}, "geometry": {"type": "Point", "coordinates": [-167.63677939234762, -55.05723122810585]}}, {"type": "Feature", "properties": {"norad_id": 41727, "name": "GAOFEN-3", "group": "resource", "lat": 81.05561360899493, "lon": -73.43076875074206, "alt_km": 742.9245360210307, "timestamp": "2025-12-16T23:36:35.842328+00:00", "meta": {"OBJECT_NAME": "GAOFEN-3", "OBJECT_ID": "2016-049A", "EPOCH": "2025-12-16T06:33:27.770976", "MEAN_MOTION": 14.42214761, "ECCENTRICITY": 0.00013251, "INCLINATION": 98.4042, "RA_OF_ASC_NODE": 355.8061, "ARG_OF_PERICENTER": 59.2632, "MEAN_ANOMALY": 300.8688, "EPHEMERIS_TYPE": 0, "CLASSIFICATION_TYPE": "U", "NORAD_CAT_ID": 41727, "ELEMENT_SET_NO": 999, "REV_AT_EPOCH": 49228, "BSTAR": 3.45362e-05, "MEAN_MOTION_DOT": 7e-07, "MEAN_MOTION_DDOT": 0}, "tle": {"line1": "1 41727U 16049A   25350.27323809  .00000070  00000+0  34536-4 0  9991", "line2": "2 41727  98.4042 355.8061 0001325  59.2632 300.8688 14.42214761492286"}}, "geometry": {"type": "Point", "coordinates": [-73.43076875074206, 81.05561360899493]}}, {"type": "Feature", "properties": {"norad_id": 41771, "name": "SKYSAT-C4", "group": "resource", "lat": -7.878224953796311, "lon": -164.99993811003395, "alt_km": 442.57046771988826, "timestamp": "2025-12-16T23:36:35.842339+00:00", "meta": {"OBJECT_NAME": "SKYSAT-C4", "OBJECT_ID": "2016-058B", "EPOCH": "2025-12-16T00:59:56.882112", "MEAN_MOTION": 15.42347655, "ECCENTRICITY": 0.00018152, "INCLINATION": 96.9374, "RA_OF_ASC_NODE": 15.0689, "ARG_OF_PERICENTER": 132.6391, "MEAN_ANOMALY": 227.5011, "EPHEMERIS_TYPE": 0, "CLASSIFICATION_TYPE": "U", "NORAD_CAT_ID": 41771, "ELEMENT_SET_NO": 999, "REV_AT_EPOCH": 51718, "BSTAR": 0.00026423992, "MEAN_MOTION_DOT": 0.00011318, "MEAN_MOTION_DDOT": 0}, "tle": {"line1": "1 41771U 16058B   25350.04163058  .00011318  00000+0  26424-3 0  9996", "line2": "2 41771  96.9374  15.0689 0001815 132.6391 227.5011 15.42347655517181"}}, "geometry": {"type": "Point", "coordinates": [-164.99993811003395, -7.878224953796311]}}, {"type": "Feature", "properties": {"norad_id": 41772, "name": "SKYSAT-C5", "group": "resource", "lat": -21.178796488843552, "lon": 37.318527717739535, "alt_km": 468.2436893223121, "timestamp": "2025-12-16T23:36:35.842349+00:00", "meta": {"OBJECT_NAME": "SKYSAT-C5", "OBJECT_ID": "2016-058C", "EPOCH": "2025-12-16T03:20:59.438976", "MEAN_MOTION": 15.33938738, "ECCENTRICITY": 0.00037842, "INCLINATION": 97.0765, "RA_OF_ASC_NODE": 33.7507, "ARG_OF_PERICENTER": 279.064, "MEAN_ANOMALY": 81.0175, "EPHEMERIS_TYPE": 0, "CLASSIFICATION_TYPE": "U", "NORAD_CAT_ID": 41772, "ELEMENT_SET_NO": 999, "REV_AT_EPOCH": 51568, "BSTAR": 0.00027996502, "MEAN_MOTION_DOT": 9.12e-05, "MEAN_MOTION_DDOT": 0}, "tle": {"line1": "1 41772U 16058C   25350.13957684  .00009120  00000+0  27997-3 0  9997", "line2": "2 41772  97.0765  33.7507 0003784 279.0640  81.0175 15.33938738515689"}}, "geometry": {"type": "Point", "coordinates": [37.318527717739535, -21.178796488843552]}}, {"type": "Feature", "properties": {"norad_id": 41773, "name": "SKYSAT-C2", "group": "resource", "lat": 35.99249109130472, "lon": 10.184172812830308, "alt_km": 448.93868780809953, "timestamp": "2025-12-16T23:36:35.842360+00:00", "meta": {"OBJECT_NAME": "SKYSAT-C2", "OBJECT_ID": "2016-058D", "EPOCH": "2025-12-16T01:34:57.592704", "MEAN_MOTION": 15.37349108, "ECCENTRICITY": 0.00038859, "INCLINATION": 97.0363, "RA_OF_ASC_NODE": 14.4522, "ARG_OF_PERICENTER": 26.1288, "MEAN_ANOMALY": 334.0153, "EPHEMERIS_TYPE": 0, "CLASSIFICATION_TYPE": "U", "NORAD_CAT_ID": 41773, "ELEMENT_SET_NO": 999, "REV_AT_EPOCH": 51687, "BSTAR": 0.00024218094, "MEAN_MOTION_DOT": 8.79e-05, "MEAN_MOTION_DDOT": 0}, "tle": {"line1": "1 41773U 16058D   25350.06594436  .00008790  00000+0  24218-3 0  9997", "line2": "2 41773  97.0363  14.4522 0003885  26.1288 334.0153 15.37349108516878"}}, "geometry": {"type": "Point", "coordinates": [10.184172812830308, 35.99249109130472]}}]}